start=new Date('2022-09-24T00:00:00.000Z').valueOf();
sats=[{"BSTAR":"0.00021898000000","COUNTRY_CODE":"US","APOAPSIS":"541.033","EPHEMERIS_TYPE":"0","EPOCH":"2022-09-23T21:17:40.329312","FILE":"3581681","CENTER_NAME":"EARTH","PERIOD":"95.438","CLASSIFICATION_TYPE":"U","LAUNCH_DATE":"2021-12-18","MEAN_MOTION_DOT":"0.00003198","ELEMENT_SET_NO":"999","NORAD_CAT_ID":"50176","REF_FRAME":"TEME","PERIAPSIS":"538.474","OBJECT_NAME":"STARLINK-3293","RA_OF_ASC_NODE":"158.0758","OBJECT_ID":"2021-125W","INCLINATION":"53.2167","TIME_SYSTEM":"UTC","RCS_SIZE":"LARGE","GP_ID":"213334681","SEMIMAJOR_AXIS":"6917.889","SITE":"AFWTR","REV_AT_EPOCH":"4600","ECCENTRICITY":"0.00018490","TLE_LINE1":"1 50176U 21125W   22266.88727233  .00003198  00000-0  21898-3 0  9990","OBJECT_TYPE":"PAYLOAD","MEAN_MOTION_DDOT":"0.0000000000000","MEAN_MOTION":"15.08837332","TLE_LINE2":"2 50176  53.2167 158.0758 0001849  53.4729 306.6433 15.08837332 46006","MEAN_ELEMENT_THEORY":"SGP4","MEAN_ANOMALY":"306.6433","DECAY_DATE":null,"ARG_OF_PERICENTER":"53.4729"},{"MEAN_MOTION_DOT":"-0.00006994","ELEMENT_SET_NO":"999","NORAD_CAT_ID":"50177","LAUNCH_DATE":"2021-12-18","CLASSIFICATION_TYPE":"U","PERIOD":"95.436","EPOCH":"2022-09-22T23:18:09.468288","FILE":"3581351","CENTER_NAME":"EARTH","COUNTRY_CODE":"US","BSTAR":"-0.00042145000000","APOAPSIS":"541.090","EPHEMERIS_TYPE":"0","TLE_LINE2":"2 50177  53.2167 162.1868 0002059  50.2056 309.9117 15.08866210 45828","MEAN_ELEMENT_THEORY":"SGP4","MEAN_MOTION":"15.08866210","MEAN_ANOMALY":"309.9117","DECAY_DATE":null,"ARG_OF_PERICENTER":"50.2056","REV_AT_EPOCH":"4582","OBJECT_TYPE":"PAYLOAD","TLE_LINE1":"1 50177U 21125X   22265.97094292 -.00006994  00000-0 -42145-3 0  9999","ECCENTRICITY":"0.00020590","MEAN_MOTION_DDOT":"0.0000000000000","INCLINATION":"53.2167","TIME_SYSTEM":"UTC","OBJECT_ID":"2021-125X","RCS_SIZE":"LARGE","SITE":"AFWTR","GP_ID":"213304164","SEMIMAJOR_AXIS":"6917.800","REF_FRAME":"TEME","OBJECT_NAME":"STARLINK-3282","PERIAPSIS":"538.241","RA_OF_ASC_NODE":"162.1868"},{"BSTAR":"0.00007454500000","COUNTRY_CODE":"US","APOAPSIS":"540.929","EPHEMERIS_TYPE":"0","EPOCH":"2022-09-23T20:35:17.041632","FILE":"3581681","CENTER_NAME":"EARTH","PERIOD":"95.438","CLASSIFICATION_TYPE":"U","LAUNCH_DATE":"2021-12-18","MEAN_MOTION_DOT":"0.00000898","ELEMENT_SET_NO":"999","NORAD_CAT_ID":"50178","REF_FRAME":"TEME","PERIAPSIS":"538.583","OBJECT_NAME":"STARLINK-3284","RA_OF_ASC_NODE":"158.1852","OBJECT_ID":"2021-125Y","INCLINATION":"53.2163","TIME_SYSTEM":"UTC","RCS_SIZE":"LARGE","SEMIMAJOR_AXIS":"6917.891","GP_ID":"213336182","SITE":"AFWTR","REV_AT_EPOCH":"4599","ECCENTRICITY":"0.00016960","TLE_LINE1":"1 50178U 21125Y   22266.85783613  .00000898  00000-0  74545-4 0  9995","OBJECT_TYPE":"PAYLOAD","MEAN_MOTION_DDOT":"0.0000000000000","MEAN_MOTION":"15.08836476","MEAN_ELEMENT_THEORY":"SGP4","TLE_LINE2":"2 50178  53.2163 158.1852 0001696  49.7243 310.3897 15.08836476 45990","DECAY_DATE":null,"MEAN_ANOMALY":"310.3897","ARG_OF_PERICENTER":"49.7243"},{"MEAN_MOTION_DOT":"0.00000197","ELEMENT_SET_NO":"999","NORAD_CAT_ID":"50179","CLASSIFICATION_TYPE":"U","PERIOD":"95.437","LAUNCH_DATE":"2021-12-18","EPOCH":"2022-09-23T21:22:58.154304","FILE":"3581681","CENTER_NAME":"EARTH","BSTAR":"0.00003046600000","COUNTRY_CODE":"US","APOAPSIS":"540.992","EPHEMERIS_TYPE":"0","MEAN_MOTION":"15.08843289","MEAN_ELEMENT_THEORY":"SGP4","TLE_LINE2":"2 50179  53.2167 158.0546 0001817  50.9486 309.1667 15.08843289 45960","MEAN_ANOMALY":"309.1667","DECAY_DATE":null,"ARG_OF_PERICENTER":"50.9486","REV_AT_EPOCH":"4596","ECCENTRICITY":"0.00018170","TLE_LINE1":"1 50179U 21125Z   22266.89095086  .00000197  00000-0  30466-4 0  9996","OBJECT_TYPE":"PAYLOAD","MEAN_MOTION_DDOT":"0.0000000000000","OBJECT_ID":"2021-125Z","INCLINATION":"53.2167","TIME_SYSTEM":"UTC","RCS_SIZE":"LARGE","GP_ID":"213334431","SITE":"AFWTR","SEMIMAJOR_AXIS":"6917.870","REF_FRAME":"TEME","PERIAPSIS":"538.478","OBJECT_NAME":"STARLINK-3283","RA_OF_ASC_NODE":"158.0546"},{"EPHEMERIS_TYPE":"0","APOAPSIS":"540.830","COUNTRY_CODE":"US","BSTAR":"0.00009690100000","CENTER_NAME":"EARTH","FILE":"3581646","EPOCH":"2022-09-23T21:01:46.656480","LAUNCH_DATE":"2021-12-18","CLASSIFICATION_TYPE":"U","PERIOD":"95.438","NORAD_CAT_ID":"50180","ELEMENT_SET_NO":"999","MEAN_MOTION_DOT":"0.00001254","RA_OF_ASC_NODE":"158.1192","OBJECT_NAME":"STARLINK-3265","PERIAPSIS":"538.684","REF_FRAME":"TEME","GP_ID":"213311790","SITE":"AFWTR","SEMIMAJOR_AXIS":"6917.892","RCS_SIZE":"LARGE","INCLINATION":"53.2158","TIME_SYSTEM":"UTC","OBJECT_ID":"2021-125AA","MEAN_MOTION_DDOT":"0.0000000000000","TLE_LINE1":"1 50180U 21125AA  22266.87623445  .00001254  00000-0  96901-4 0  9993","ECCENTRICITY":"0.00015510","OBJECT_TYPE":"PAYLOAD","REV_AT_EPOCH":"4287","ARG_OF_PERICENTER":"51.8830","DECAY_DATE":null,"MEAN_ANOMALY":"308.2302","MEAN_ELEMENT_THEORY":"SGP4","TLE_LINE2":"2 50180  53.2158 158.1192 0001551  51.8830 308.2302 15.08836129 42876","MEAN_MOTION":"15.08836129"},{"MEAN_ANOMALY":"320.1043","DECAY_DATE":null,"MEAN_MOTION":"15.08833988","TLE_LINE2":"2 50181  53.2176 158.1536 0001681  40.0073 320.1043 15.08833988 45960","MEAN_ELEMENT_THEORY":"SGP4","ARG_OF_PERICENTER":"40.0073","REV_AT_EPOCH":"4596","MEAN_MOTION_DDOT":"0.0000000000000","TLE_LINE1":"1 50181U 21125AB  22266.86887424 -.00000962  00000-0 -42379-4 0  9999","ECCENTRICITY":"0.00016810","OBJECT_TYPE":"PAYLOAD","RCS_SIZE":"LARGE","OBJECT_ID":"2021-125AB","INCLINATION":"53.2176","TIME_SYSTEM":"UTC","SEMIMAJOR_AXIS":"6917.899","GP_ID":"213335433","SITE":"AFWTR","REF_FRAME":"TEME","RA_OF_ASC_NODE":"158.1536","PERIAPSIS":"538.601","OBJECT_NAME":"STARLINK-3285","MEAN_MOTION_DOT":"-0.00000962","NORAD_CAT_ID":"50181","ELEMENT_SET_NO":"999","PERIOD":"95.438","CLASSIFICATION_TYPE":"U","LAUNCH_DATE":"2021-12-18","EPOCH":"2022-09-23T20:51:10.734336","CENTER_NAME":"EARTH","FILE":"3581681","BSTAR":"-0.00004237900000","COUNTRY_CODE":"US","EPHEMERIS_TYPE":"0","APOAPSIS":"540.927"},{"EPHEMERIS_TYPE":"0","APOAPSIS":"541.056","COUNTRY_CODE":"US","BSTAR":"0.00005137800000","CENTER_NAME":"EARTH","FILE":"3581646","EPOCH":"2022-09-23T20:40:34.263552","LAUNCH_DATE":"2021-12-18","PERIOD":"95.438","CLASSIFICATION_TYPE":"U","NORAD_CAT_ID":"50182","ELEMENT_SET_NO":"999","MEAN_MOTION_DOT":"0.00000530","RA_OF_ASC_NODE":"158.1872","OBJECT_NAME":"STARLINK-3277","PERIAPSIS":"538.434","REF_FRAME":"TEME","SITE":"AFWTR","GP_ID":"213311797","SEMIMAJOR_AXIS":"6917.880","RCS_SIZE":"LARGE","INCLINATION":"53.2182","TIME_SYSTEM":"UTC","OBJECT_ID":"2021-125AC","MEAN_MOTION_DDOT":"0.0000000000000","OBJECT_TYPE":"PAYLOAD","TLE_LINE1":"1 50182U 21125AC  22266.86150768  .00000530  00000-0  51378-4 0  9992","ECCENTRICITY":"0.00018950","REV_AT_EPOCH":"4547","ARG_OF_PERICENTER":"40.5519","MEAN_ANOMALY":"319.5614","DECAY_DATE":null,"TLE_LINE2":"2 50182  53.2182 158.1872 0001895  40.5519 319.5614 15.08840095 45477","MEAN_ELEMENT_THEORY":"SGP4","MEAN_MOTION":"15.08840095"},{"COUNTRY_CODE":"US","BSTAR":"0.00019665000000","EPHEMERIS_TYPE":"0","APOAPSIS":"540.737","EPOCH":"2022-09-23T20:45:51.850944","CENTER_NAME":"EARTH","FILE":"3581681","LAUNCH_DATE":"2021-12-18","PERIOD":"95.437","CLASSIFICATION_TYPE":"U","MEAN_MOTION_DOT":"0.00002844","NORAD_CAT_ID":"50183","ELEMENT_SET_NO":"999","REF_FRAME":"TEME","RA_OF_ASC_NODE":"158.1768","OBJECT_NAME":"STARLINK-3281","PERIAPSIS":"538.722","RCS_SIZE":"LARGE","INCLINATION":"53.2172","TIME_SYSTEM":"UTC","OBJECT_ID":"2021-125AD","SEMIMAJOR_AXIS":"6917.865","GP_ID":"213334931","SITE":"AFWTR","REV_AT_EPOCH":"4600","MEAN_MOTION_DDOT":"0.0000000000000","TLE_LINE1":"1 50183U 21125AD  22266.86518346  .00002844  00000-0  19665-3 0  9995","OBJECT_TYPE":"PAYLOAD","ECCENTRICITY":"0.00014570","DECAY_DATE":null,"MEAN_ANOMALY":"295.7506","TLE_LINE2":"2 50183  53.2172 158.1768 0001457  64.3637 295.7506 15.08845190 46006","MEAN_ELEMENT_THEORY":"SGP4","MEAN_MOTION":"15.08845190","ARG_OF_PERICENTER":"64.3637"},{"SEMIMAJOR_AXIS":"6917.895","GP_ID":"213334682","SITE":"AFWTR","OBJECT_ID":"2021-125AF","INCLINATION":"53.2162","TIME_SYSTEM":"UTC","RCS_SIZE":"LARGE","PERIAPSIS":"538.379","OBJECT_NAME":"STARLINK-3279","RA_OF_ASC_NODE":"158.1360","REF_FRAME":"TEME","ARG_OF_PERICENTER":"48.6460","MEAN_MOTION":"15.08835187","MEAN_ELEMENT_THEORY":"SGP4","TLE_LINE2":"2 50185  53.2162 158.1360 0001997  48.6460 311.4704 15.08835187 45968","MEAN_ANOMALY":"311.4704","DECAY_DATE":null,"TLE_LINE1":"1 50185U 21125AF  22266.87255599  .00001404  00000-0  10630-3 0  9990","ECCENTRICITY":"0.00019970","OBJECT_TYPE":"PAYLOAD","MEAN_MOTION_DDOT":"0.0000000000000","REV_AT_EPOCH":"4596","FILE":"3581681","CENTER_NAME":"EARTH","EPOCH":"2022-09-23T20:56:28.837536","APOAPSIS":"541.142","EPHEMERIS_TYPE":"0","BSTAR":"0.00010630000000","COUNTRY_CODE":"US","ELEMENT_SET_NO":"999","NORAD_CAT_ID":"50185","MEAN_MOTION_DOT":"0.00001404","PERIOD":"95.438","CLASSIFICATION_TYPE":"U","LAUNCH_DATE":"2021-12-18"},{"MEAN_ELEMENT_THEORY":"SGP4","TLE_LINE2":"2 50186  53.2175 168.0610 0001735  50.3822 309.7324 15.08832046 45816","MEAN_MOTION":"15.08832046","DECAY_DATE":null,"MEAN_ANOMALY":"309.7324","ARG_OF_PERICENTER":"50.3822","REV_AT_EPOCH":"4581","TLE_LINE1":"1 50186U 21125AG  22266.88635262  .00000929  00000-0  76486-4 0  9994","ECCENTRICITY":"0.00017350","OBJECT_TYPE":"PAYLOAD","MEAN_MOTION_DDOT":"0.0000000000000","INCLINATION":"53.2175","TIME_SYSTEM":"UTC","OBJECT_ID":"2021-125AG","RCS_SIZE":"LARGE","GP_ID":"213335933","SITE":"AFWTR","SEMIMAJOR_AXIS":"6917.905","REF_FRAME":"TEME","OBJECT_NAME":"STARLINK-3274","PERIAPSIS":"538.569","RA_OF_ASC_NODE":"168.0610","MEAN_MOTION_DOT":"0.00000929","ELEMENT_SET_NO":"999","NORAD_CAT_ID":"50186","LAUNCH_DATE":"2021-12-18","CLASSIFICATION_TYPE":"U","PERIOD":"95.438","EPOCH":"2022-09-23T21:16:20.866368","FILE":"3581681","CENTER_NAME":"EARTH","COUNTRY_CODE":"US","BSTAR":"0.00007648600000","APOAPSIS":"540.970","EPHEMERIS_TYPE":"0"}];
